STARLINK-1964
1 27565C 21009T   21325.14619760  .00009887  00000-0  66246-3 0  3258
2 27565  53.0543 217.5733 0001944  62.3332  54.6820 15.06385580    11
